COSMOS 2433 (720)       
1 32275U 07052A   23254.07135238 -.00000094  00000+0  00000+0 0  9990
2 32275  66.0201 349.7117 0003950 221.3471 138.6534  2.13104262123574
COSMOS 2432 (719)       
1 32276U 07052B   23254.09244005 -.00000094  00000+0  00000+0 0  9996
2 32276  66.0344 349.8199 0008337 318.5405   4.6792  2.13103378123568
COSMOS 2434 (721)       
1 32393U 07065A   23253.50434664  .00000032  00000+0  00000+0 0  9998
2 32393  64.3366 226.0958 0000337  75.5817 100.6235  2.13103123122231
COSMOS 2436 (723)       
1 32395U 07065C   23252.80912403  .00000040  00000+0  00000+0 0  9993
2 32395  64.3454 226.1811 0015790 353.0301 145.3323  2.13102815122175
COSMOS 2456 (730)       
1 36111U 09070A   23253.32931878  .00000026  00000+0  00000+0 0  9990
2 36111  64.4928 105.6002 0002003 336.2855 224.7401  2.13099301106889
COSMOS 2457 (733)       
1 36112U 09070B   23254.54200862  .00000040  00000+0  00000+0 0  9994
2 36112  64.4771 105.4238 0005884 146.9341  35.2561  2.13101477106959
COSMOS 2460 (732)       
1 36402U 10007C   23254.33574297 -.00000092  00000+0  00000+0 0  9999
2 36402  65.8822 348.4173 0001536 184.0187 188.4074  2.13106428105300
COSMOS 2476 (744)       
1 37867U 11064A   23253.43888307  .00000027  00000+0  00000+0 0  9996
2 37867  64.7723 107.1262 0021194 232.0516 322.3900  2.13101839 92229
COSMOS 2477 (745)       
1 37868U 11064B   23253.42704035  .00000027  00000+0  00000+0 0  9991
2 37868  64.7796 107.1962 0018406 232.3486 130.8906  2.13101739 92236
COSMOS 2475 (743)       
1 37869U 11064C   23253.24632861  .00000024  00000+0  00000+0 0  9996
2 37869  64.7864 107.2145 0022534 250.6909 292.3981  2.13102104 92220
COSMOS 2485 (747)       
1 39155U 13019A   23253.12743426  .00000023  00000+0  00000+0 0  9994
2 39155  64.9324 107.6616 0021712 227.9998 131.9020  2.13102037 80732
COSMOS 2492 (754)       
1 39620U 14012A   23254.02139931 -.00000093  00000+0  00000+0 0  9993
2 39620  65.7659 348.0455 0011488 315.4370  44.5033  2.13103271 73711
COSMOS 2500 (755)       
1 40001U 14032A   23253.26609086 -.00000096  00000+0  00000+0 0  9991
2 40001  65.7043 347.8976 0008131 199.5477 160.4524  2.13106022 71918
COSMOS 2501 (702K)      
1 40315U 14075A   23253.04679263  .00000035  00000+0  00000+0 0  9998
2 40315  63.6401 225.4604 0019926 211.2469 148.6242  2.13101373 68305
COSMOS 2514 (751)       
1 41330U 16008A   23254.43592856 -.00000090  00000+0  00000+0 0  9992
2 41330  65.5011 347.4378 0011909 208.2844 151.6855  2.13102728 59107
COSMOS 2516 (753)       
1 41554U 16032A   23253.14269293  .00000035  00000+0  00000+0 0  9998
2 41554  63.8665 225.8595 0015425 214.4861 145.4036  2.13106470 56686
COSMOS 2522 (752)       
1 42939U 17055A   23253.33914440  .00000034  00000+0  00000+0 0  9993
2 42939  64.1005 226.3796 0009679 243.3706 116.5200  2.13102011 46439
COSMOS 2527 (756)       
1 43508U 18053A   23254.23641637  .00000037  00000+0  00000+0 0  9993
2 43508  65.0942 107.7182 0007344 217.7509 142.2889  2.13102532 40752
COSMOS 2529 (757)       
1 43687U 18086A   23252.92787614  .00000040  00000+0  00000+0 0  9991
2 43687  64.3159 226.8308 0011361 262.4348  97.4276  2.13102093 37734
COSMOS 2534 (758)       
1 44299U 19030A   23253.44319744  .00000034  00000+0  00000+0 0  9997
2 44299  64.3886 226.7401 0013510 281.3933 248.0870  2.13102046 33381
COSMOS 2544 (759)       
1 44850U 19088A   23254.18015215  .00000036  00000+0  00000+0 0  9993
2 44850  65.0800 107.5628 0011269 251.4915 108.4772  2.13102294 29179
COSMOS 2545 (760)       
1 45358U 20018A   23253.43838914 -.00000096  00000+0  00000+0 0  9995
2 45358  64.8417 347.7116 0010150 237.6839 122.2498  2.13102678 27121
COSMOS 2547 (705K)      
1 46805U 20075A   23253.62734496  .00000032  00000+0  00000+0 0  9996
2 46805  64.6158 226.2919 0008475 244.0431 115.8585  2.13102943 22370
COSMOS 2557 (706K)      
1 52984U 22075A   23253.78993768 -.00000096  00000+0  00000+0 0  9990
2 52984  64.7584 349.8580 0012001 275.3655  84.5274  2.13102425  9164
COSMOS 2559 (707K)      
1 54031U 22130A   23252.79340735 -.00000100  00000+0  00000+0 0  9993
2 54031  64.7300 350.0200 0007215 217.6260 142.3515  2.13101616  7137
COSMOS 2564 (761)       
1 54377U 22161A   23252.98652134  .00000039  00000+0  00000+0 0  9990
2 54377  64.7567 226.3674 0010807 226.2804 133.6212  2.13102208  6084
